{"fetched_at":"2026-07-09T18:17:22.443Z","source":"https://celestrak.org/NORAD/elements/gp.php?NAME=SENTINEL&FORMAT=JSON","constellation":"sentinel-1","records":[{"OBJECT_NAME":"SENTINEL-1A","OBJECT_ID":"2014-016A","EPOCH":"2026-07-08T23:13:10.105248","CLASSIFICATION_TYPE":"U","MEAN_MOTION":14.59198675,"ECCENTRICITY":0.00014088,"INCLINATION":98.1787,"RA_OF_ASC_NODE":197.182,"ARG_OF_PERICENTER":87.5922,"MEAN_ANOMALY":272.5439,"EPHEMERIS_TYPE":0,"NORAD_CAT_ID":39634,"ELEMENT_SET_NO":999,"REV_AT_EPOCH":65319,"BSTAR":-0.000025667552,"MEAN_MOTION_DOT":-0.00000167,"MEAN_MOTION_DDOT":0},{"OBJECT_NAME":"SENTINEL-1C","OBJECT_ID":"2024-235A","EPOCH":"2026-07-09T00:09:53.885952","CLASSIFICATION_TYPE":"U","MEAN_MOTION":14.5919721,"ECCENTRICITY":0.00013699,"INCLINATION":98.1821,"RA_OF_ASC_NODE":197.0043,"ARG_OF_PERICENTER":90.0308,"MEAN_ANOMALY":270.1049,"EPHEMERIS_TYPE":0,"NORAD_CAT_ID":62261,"ELEMENT_SET_NO":999,"REV_AT_EPOCH":8459,"BSTAR":0.000069104231,"MEAN_MOTION_DOT":0.0000028,"MEAN_MOTION_DDOT":0},{"OBJECT_NAME":"SENTINEL-1D","OBJECT_ID":"2025-251A","EPOCH":"2026-07-08T21:42:00.153216","CLASSIFICATION_TYPE":"U","MEAN_MOTION":14.59198118,"ECCENTRICITY":0.00013626,"INCLINATION":98.1829,"RA_OF_ASC_NODE":196.958,"ARG_OF_PERICENTER":90.0526,"MEAN_ANOMALY":270.083,"EPHEMERIS_TYPE":0,"NORAD_CAT_ID":66315,"ELEMENT_SET_NO":999,"REV_AT_EPOCH":3589,"BSTAR":0.000007115742,"MEAN_MOTION_DOT":-1.2e-7,"MEAN_MOTION_DDOT":0}]}
